IRIDIUM 7               
1 24793U 97020B   25032.49327031  .00000794  00000+0  26803-3 0  9995
2 24793  86.3931 233.7249 0001902  97.0164 263.1249 14.35741885452426
IRIDIUM 5               
1 24795U 97020D   25032.76381164  .00010452  00000+0  90605-3 0  9997
2 24795  86.3951 146.0830 0111231 263.7048  95.1501 14.92246667465252
IRIDIUM 4               
1 24796U 97020E   25032.49262858  .00000838  00000+0  27816-3 0  9997
2 24796  86.3931 230.6906 0001877  89.9962 270.1450 14.36652534452988
IRIDIUM 914             
1 24836U 97030A   25032.52566500  .00000929  00000+0  28511-3 0  9992
2 24836  86.3903 239.6912 0001282  32.5479 327.5799 14.40632778587597
IRIDIUM 16              
1 24841U 97030F   25032.63054182  .00000818  00000+0  26136-3 0  9996
2 24841  86.3996 262.2284 0003585 120.4297 239.7256 14.38495456447518
IRIDIUM 911             
1 24842U 97030G   25032.62514320  .00001121  00000+0  30057-3 0  9996
2 24842  86.4421 261.1400 0013840 181.8025 178.3131 14.47338142455478
IRIDIUM 17              
1 24870U 97034B   25032.25569883  .00000990  00000+0  32363-3 0  9999
2 24870  86.3954 291.9468 0003710  91.1571 269.0051 14.37610612444053
IRIDIUM 920             
1 24871U 97034C   25032.57821784  .00000866  00000+0  26169-3 0  9995
2 24871  86.3943 271.3342 0011927 159.7388 200.4288 14.41314416447042
